{"type": "FeatureCollection", "features": [ {"type": "Feature", "properties": {"norad_id": 43107, "name": "BEIDOU-3 M7 (C27)", "group": "gnss", "lat": -53.868087020540955, "lon": -153.7372133197808, "alt_km": 21541.524189340842, "timestamp": "2025-12-19T20:43:00.328654+00:00", "meta": {"OBJECT_NAME": "BEIDOU-3 M7 (C27)", "OBJECT_ID": "2018-003A", "EPOCH": "2025-12-18T09:32:16.089216", "MEAN_MOTION": 1.86232527, "ECCENTRICITY": 0.00028894, "INCLINATION": 54.4914, "RA_OF_ASC_NODE": 308.6174, "ARG_OF_PERICENTER": 69.2572, "MEAN_ANOMALY": 290.7611, "EPHEMERIS_TYPE": 0, "CLASSIFICATION_TYPE": "U", "NORAD_CAT_ID": 43107, "ELEMENT_SET_NO": 999, "REV_AT_EPOCH": 5398, "BSTAR": 0, "MEAN_MOTION_DOT": -8.5e-07, "MEAN_MOTION_DDOT": 0}, "tle": {"line1": "1 43107U 18003A   25352.39740844 -.00000085  00000+0  00000+0 0  9995", "line2": "2 43107  54.4914 308.6174 0002889  69.2572 290.7611  1.86232527 53988"}}, "geometry": {"type": "Point", "coordinates": [-153.7372133197808, -53.868087020540955]}}, {"type": "Feature", "properties": {"norad_id": 43108, "name": "BEIDOU-3 M8 (C28)", "group": "gnss", "lat": -45.0402141375082, "lon": -97.08148643789129, "alt_km": 21521.264762833285, "timestamp": "2025-12-19T20:43:00.328666+00:00", "meta": {"OBJECT_NAME": "BEIDOU-3 M8 (C28)", "OBJECT_ID": "2018-003B", "EPOCH": "2025-12-17T06:26:34.084320", "MEAN_MOTION": 1.8623095, "ECCENTRICITY": 0.00046498, "INCLINATION": 54.4854, "RA_OF_ASC_NODE": 308.6394, "ARG_OF_PERICENTER": 276.4476, "MEAN_ANOMALY": 83.4857, "EPHEMERIS_TYPE": 0, "CLASSIFICATION_TYPE": "U", "NORAD_CAT_ID": 43108, "ELEMENT_SET_NO": 999, "REV_AT_EPOCH": 5397, "BSTAR": 0, "MEAN_MOTION_DOT": -9.2e-07, "MEAN_MOTION_DDOT": 0}, "tle": {"line1": "1 43108U 18003B   25351.26845005 -.00000092  00000+0  00000+0 0  9994", "line2": "2 43108  54.4854 308.6394 0004649 276.4476  83.4857  1.86230950 53973"}}, "geometry": {"type": "Point", "coordinates": [-97.08148643789129, -45.0402141375082]}}, {"type": "Feature", "properties": {"norad_id": 43207, "name": "BEIDOU-3 M4 (C22)", "group": "gnss", "lat": 2.762221073733596, "lon": 70.91393287754464, "alt_km": 21516.358376541553, "timestamp": "2025-12-19T20:43:00.328677+00:00", "meta": {"OBJECT_NAME": "BEIDOU-3 M4 (C22)", "OBJECT_ID": "2018-018A", "EPOCH": "2025-12-18T05:56:14.155584", "MEAN_MOTION": 1.86231297, "ECCENTRICITY": 0.0004163, "INCLINATION": 56.4903, "RA_OF_ASC_NODE": 69.1221, "ARG_OF_PERICENTER": 6.0826, "MEAN_ANOMALY": 353.9513, "EPHEMERIS_TYPE": 0, "CLASSIFICATION_TYPE": "U", "NORAD_CAT_ID": 43207, "ELEMENT_SET_NO": 999, "REV_AT_EPOCH": 5337, "BSTAR": 0, "MEAN_MOTION_DOT": -6.5e-07, "MEAN_MOTION_DDOT": 0}, "tle": {"line1": "1 43207U 18018A   25352.24738606 -.00000065  00000+0  00000+0 0  9997", "line2": "2 43207  56.4903  69.1221 0004163   6.0826 353.9513  1.86231297 53378"}}, "geometry": {"type": "Point", "coordinates": [70.91393287754464, 2.762221073733596]}}, {"type": "Feature", "properties": {"norad_id": 43208, "name": "BEIDOU-3 M3 (C21)", "group": "gnss", "lat": -33.4172487987649, "lon": 43.2104949757442, "alt_km": 21513.245251809985, "timestamp": "2025-12-19T20:43:00.328688+00:00", "meta": {"OBJECT_NAME": "BEIDOU-3 M3 (C21)", "OBJECT_ID": "2018-018B", "EPOCH": "2025-12-18T07:32:00.641184", "MEAN_MOTION": 1.86231501, "ECCENTRICITY": 0.00068177, "INCLINATION": 56.4898, "RA_OF_ASC_NODE": 69.124, "ARG_OF_PERICENTER": 315.0049, "MEAN_ANOMALY": 44.9692, "EPHEMERIS_TYPE": 0, "CLASSIFICATION_TYPE": "U", "NORAD_CAT_ID": 43208, "ELEMENT_SET_NO": 999, "REV_AT_EPOCH": 5337, "BSTAR": 0, "MEAN_MOTION_DOT": -6.4e-07, "MEAN_MOTION_DDOT": 0}, "tle": {"line1": "1 43208U 18018B   25352.31389631 -.00000064  00000+0  00000+0 0  9995", "line2": "2 43208  56.4898  69.1240 0006817 315.0049  44.9692  1.86231501 53374"}}, "geometry": {"type": "Point", "coordinates": [43.2104949757442, -33.4172487987649]}}, {"type": "Feature", "properties": {"norad_id": 43245, "name": "BEIDOU-3 M9 (C29)", "group": "gnss", "lat": 5.068423070487595, "lon": 122.55009783435645, "alt_km": 21529.669652685872, "timestamp": "2025-12-19T20:43:00.328700+00:00", "meta": {"OBJECT_NAME": "BEIDOU-3 M9 (C29)", "OBJECT_ID": "2018-029A", "EPOCH": "2025-12-17T23:50:09.526848", "MEAN_MOTION": 1.86228477, "ECCENTRICITY": 0.00015623, "INCLINATION": 54.3607, "RA_OF_ASC_NODE": 306.2844, "ARG_OF_PERICENTER": 287.552, "MEAN_ANOMALY": 72.4185, "EPHEMERIS_TYPE": 0, "CLASSIFICATION_TYPE": "U", "NORAD_CAT_ID": 43245, "ELEMENT_SET_NO": 999, "REV_AT_EPOCH": 5252, "BSTAR": 0, "MEAN_MOTION_DOT": -8.6e-07, "MEAN_MOTION_DDOT": 0}, "tle": {"line1": "1 43245U 18029A   25351.99316582 -.00000086  00000+0  00000+0 0  9990", "line2": "2 43245  54.3607 306.2844 0001562 287.5520  72.4185  1.86228477 52521"}}, "geometry": {"type": "Point", "coordinates": [122.55009783435645, 5.068423070487595]}}, {"type": "Feature", "properties": {"norad_id": 43246, "name": "BEIDOU-3 M10 (C30)", "group": "gnss", "lat": -29.424574094658684, "lon": 150.0704354391662, "alt_km": 21541.7319704334, "timestamp": "2025-12-19T20:43:00.328714+00:00", "meta": {"OBJECT_NAME": "BEIDOU-3 M10 (C30)", "OBJECT_ID": "2018-029B", "EPOCH": "2025-12-17T09:23:40.675200", "MEAN_MOTION": 1.8622912, "ECCENTRICITY": 0.00041993, "INCLINATION": 54.3586, "RA_OF_ASC_NODE": 306.3321, "ARG_OF_PERICENTER": 3.5987, "MEAN_ANOMALY": 356.3911, "EPHEMERIS_TYPE": 0, "CLASSIFICATION_TYPE": "U", "NORAD_CAT_ID": 43246, "ELEMENT_SET_NO": 999, "REV_AT_EPOCH": 5249, "BSTAR": 0, "MEAN_MOTION_DOT": -9e-07, "MEAN_MOTION_DDOT": 0}, "tle": {"line1": "1 43246U 18029B   25351.39144300 -.00000090  00000+0  00000+0 0  9997", "line2": "2 43246  54.3586 306.3321 0004199   3.5987 356.3911  1.86229120 52494"}}, "geometry": {"type": "Point", "coordinates": [150.0704354391662, -29.424574094658684]}}, {"type": "Feature", "properties": {"norad_id": 43286, "name": "IRNSS-1I", "group": "gnss", "lat": 8.404285834015178, "lon": 92.30228407071634, "alt_km": 35873.66209366635, "timestamp": "2025-12-19T20:43:00.328725+00:00", "meta": {"OBJECT_NAME": "IRNSS-1I", "OBJECT_ID": "2018-035A", "EPOCH": "2025-12-14T19:56:38.641056", "MEAN_MOTION": 1.00272129, "ECCENTRICITY": 0.00217173, "INCLINATION": 29.1546, "RA_OF_ASC_NODE": 77.0653, "ARG_OF_PERICENTER": 182.6132, "MEAN_ANOMALY": 178.227, "EPHEMERIS_TYPE": 0, "CLASSIFICATION_TYPE": "U", "NORAD_CAT_ID": 43286, "ELEMENT_SET_NO": 999, "REV_AT_EPOCH": 2823, "BSTAR": 0, "MEAN_MOTION_DOT": 8.4e-07, "MEAN_MOTION_DDOT": 0}, "tle": {"line1": "1 43286U 18035A   25348.83100279  .00000084  00000+0  00000+0 0  9992", "line2": "2 43286  29.1546  77.0653 0021717 182.6132 178.2270  1.00272129 28237"}}, "geometry": {"type": "Point", "coordinates": [92.30228407071634, 8.404285834015178]}}, {"type": "Feature", "properties": {"norad_id": 43508, "name": "COSMOS 2527 (756)", "group": "gnss", "lat": 25.12876421124189, "lon": 92.24647755288854, "alt_km": 19148.460836175684, "timestamp": "2025-12-19T20:43:00.328740+00:00", "meta": {"OBJECT_NAME": "COSMOS 2527 (756)", "OBJECT_ID": "2018-053A", "EPOCH": "2025-12-18T10:03:29.975616", "MEAN_MOTION": 2.13102295, "ECCENTRICITY": 0.00088359, "INCLINATION": 65.4756, "RA_OF_ASC_NODE": 79.9416, "ARG_OF_PERICENTER": 226.669, "MEAN_ANOMALY": 133.2786, "EPHEMERIS_TYPE": 0, "CLASSIFICATION_TYPE": "U", "NORAD_CAT_ID": 43508, "ELEMENT_SET_NO": 999, "REV_AT_EPOCH": 5842, "BSTAR": 0, "MEAN_MOTION_DOT": -3.8e-07, "MEAN_MOTION_DDOT": 0}, "tle": {"line1": "1 43508U 18053A   25352.41909694 -.00000038  00000+0  00000+0 0  9996", "line2": "2 43508  65.4756  79.9416 0008835 226.6690 133.2786  2.13102295 58420"}}, "geometry": {"type": "Point", "coordinates": [92.24647755288854, 25.12876421124189]}}, {"type": "Feature", "properties": {"norad_id": 43539, "name": "BEIDOU-2 IGSO-7 (C16)", "group": "gnss", "lat": -11.186887940065066, "lon": 156.66950708146123, "alt_km": 35929.84770859263, "timestamp": "2025-12-19T20:43:00.328752+00:00", "meta": {"OBJECT_NAME": "BEIDOU-2 IGSO-7 (C16)", "OBJECT_ID": "2018-057A", "EPOCH": "2025-12-15T07:47:07.120608", "MEAN_MOTION": 1.00256546, "ECCENTRICITY": 0.00926218, "INCLINATION": 55.1766, "RA_OF_ASC_NODE": 164.6485, "ARG_OF_PERICENTER": 235.2644, "MEAN_ANOMALY": 271.8458, "EPHEMERIS_TYPE": 0, "CLASSIFICATION_TYPE": "U", "NORAD_CAT_ID": 43539, "ELEMENT_SET_NO": 999, "REV_AT_EPOCH": 2728, "BSTAR": 0, "MEAN_MOTION_DOT": -2.3e-07, "MEAN_MOTION_DDOT": 0}, "tle": {"line1": "1 43539U 18057A   25349.32438797 -.00000023  00000+0  00000+0 0  9995", "line2": "2 43539  55.1766 164.6485 0092621 235.2644 271.8458  1.00256546 27289"}}, "geometry": {"type": "Point", "coordinates": [156.66950708146123, -11.186887940065066]}}, {"type": "Feature", "properties": {"norad_id": 43564, "name": "GSAT0221 (GALILEO 25)", "group": "gnss", "lat": 0.016580422314082358, "lon": 166.60677223691405, "alt_km": 23227.47202257985, "timestamp": "2025-12-19T20:43:00.328778+00:00", "meta": {"OBJECT_NAME": "GSAT0221 (GALILEO 25)", "OBJECT_ID": "2018-060A", "EPOCH": "2025-12-17T19:26:26.344896", "MEAN_MOTION": 1.7047594, "ECCENTRICITY": 0.00067192, "INCLINATION": 57.2267, "RA_OF_ASC_NODE": 346.6806, "ARG_OF_PERICENTER": 285.1372, "MEAN_ANOMALY": 74.8036, "EPHEMERIS_TYPE": 0, "CLASSIFICATION_TYPE": "U", "NORAD_CAT_ID": 43564, "ELEMENT_SET_NO": 999, "REV_AT_EPOCH": 4607, "BSTAR": 0, "MEAN_MOTION_DOT": -7.7e-07, "MEAN_MOTION_DDOT": 0}, "tle": {"line1": "1 43564U 18060A   25351.81002714 -.00000077  00000+0  00000+0 0  9999", "line2": "2 43564  57.2267 346.6806 0006719 285.1372  74.8036  1.70475940 46079"}}, "geometry": {"type": "Point", "coordinates": [166.60677223691405, 0.016580422314082358]}}]}